0 FORMOSAT 3A
1 29047U 06011A   13283.58614770  .00000202  00000-0  97174-4 0  2118
2 29047 071.9818 051.4308 0053321 310.6175 177.8575 14.27734738392657
0 FORMOSAT 3A
1 29047U 06011A   13286.03575382  .00000278  00000-0  12767-3 0  2135
2 29047 071.9823 046.4396 0053463 306.5021 168.3533 14.27735841393000
0 FORMOSAT 3A
1 29047U 06011A   13287.07452958  .00000331  00000-0  14882-3 0  2144
2 29047 071.9825 044.3231 0053497 304.7599 107.4599 14.27735921393155
0 FORMOSAT 3A
1 29047U 06011A   13288.12794595  .00000459  00000-0  19986-3 0  2159
2 29047 071.9825 042.1769 0053562 302.9785 121.8305 14.27737387393307
0 FORMOSAT 3A
1 29047U 06011A   13289.47155730  .00000328  00000-0  14730-3 0  2168
2 29047 071.9826 039.4395 0053610 300.7329 187.7290 14.27739303393490
0 FORMOSAT 3A
1 29047U 06011A   13290.58604875  .00000371  00000-0  16466-3 0  2178
2 29047 071.9825 037.1688 0053666 298.8658 156.0070 14.27740386393658
0 FORMOSAT 3A
1 29047U 06011A   13291.78169920  .00000414  00000-0  18159-3 0  2188
2 29047 071.9825 034.7329 0053715 296.8935 181.4029 14.27740996393826
0 FORMOSAT 3A
1 29047U 06011A   13292.97230677  .00000488  00000-0  21113-3 0  2194
2 29047 071.9824 032.3072 0053753 294.9123 180.9033 14.27741838393997
0 FORMOSAT 3A
1 29047U 06011A   13294.50796826  .00000451  00000-0  19635-3 0  2206
2 29047 071.9823 029.1784 0053786 292.3440 153.9322 14.27743751394213
0 FORMOSAT 3A
1 29047U 06011A   13296.18162729  .00000420  00000-0  18423-3 0  2212
2 29047 071.9824 025.7684 0053834 289.5604 116.2342 14.27746290394450
